{
    "links": {
        "self": "http://www.neowsapp.com/rest/v1/neo/3653304?api_key=iIulBulltgU6a56xZRHN4H3l9WmuAYTsLGpBGhQ2"
    },
    "id": "3653304",
    "neo_reference_id": "3653304",
    "name": "(2013 UR8)",
    "designation": "2013 UR8",
    "nasa_jpl_url": "http://ssd.jpl.nasa.gov/sbdb.cgi?sstr=3653304",
    "absolute_magnitude_h": 22.6,
    "estimated_diameter": {
        "kilometers": {
            "estimated_diameter_min": 0.0802703167,
            "estimated_diameter_max": 0.1794898848
        },
        "meters": {
            "estimated_diameter_min": 80.2703167283,
            "estimated_diameter_max": 179.4898847799
        },
        "miles": {
            "estimated_diameter_min": 0.049877647,
            "estimated_diameter_max": 0.1115298092
        },
        "feet": {
            "estimated_diameter_min": 263.3540659348,
            "estimated_diameter_max": 588.8775935812
        }
    },
    "is_potentially_hazardous_asteroid": false,
    "close_approach_data": [
        {
            "close_approach_date": "2013-10-22",
            "close_approach_date_full": "2013-Oct-22 20:09",
            "epoch_date_close_approach": 1382472540000,
            "relative_velocity": {
                "kilometers_per_second": "7.5775039894",
                "kilometers_per_hour": "27279.0143618115",
                "miles_per_hour": "16950.1186738711"
            },
            "miss_distance": {
                "astronomical": "0.20006582",
                "lunar": "77.82560398",
                "kilometers": "29929420.5318034",
                "miles": "18597279.55115092"
            },
            "orbiting_body": "Earth"
        }
    ],
    "orbital_data": {
        "orbit_id": "10",
        "orbit_determination_date": "2017-04-06 08:43:56",
        "first_observation_date": "2013-10-28",
        "last_observation_date": "2013-11-06",
        "data_arc_in_days": 9,
        "observations_used": 36,
        "orbit_uncertainty": "8",
        "minimum_orbit_intersection": ".141696",
        "jupiter_tisserand_invariant": "3.023",
        "epoch_osculation": "2456595.5",
        "eccentricity": ".5965456637865316",
        "semi_major_axis": "2.824337420073141",
        "inclination": "3.51342095091439",
        "ascending_node_longitude": "199.301413508231",
        "orbital_period": "1733.697396560289",
        "perihelion_distance": "1.139491179058469",
        "perihelion_argument": "181.2732233388856",
        "aphelion_distance": "4.509183661087813",
        "perihelion_time": "2456586.989271965015",
        "mean_anomaly": "1.767241560536112",
        "mean_motion": ".2076486938921702",
        "equinox": "J2000",
        "orbit_class": {
            "orbit_class_type": "AMO",
            "orbit_class_description": "Near-Earth asteroid orbits similar to that of 1221 Amor",
            "orbit_class_range": "1.017 AU < q (perihelion) < 1.3 AU"
        }
    },
    "is_sentry_object": false
}